start=new Date('2022-06-25T00:00:00.000Z').valueOf();
sats=[{"SITE":"AFETR","DECAY_DATE":null,"EPHEMERIS_TYPE":"0","OBJECT_NAME":"STARLINK-1709","OBJECT_TYPE":"PAYLOAD","MEAN_MOTION":"15.06395523","ECCENTRICITY":"0.00017820","EPOCH":"2022-06-24T21:19:22.047168","RCS_SIZE":"LARGE","FILE":"3501798","ARG_OF_PERICENTER":"60.5706","PERIAPSIS":"545.993","TLE_LINE1":"1 46561U 20070AF  22175.88844962  .00001124  00000-0  94378-4 0  9990","PERIOD":"95.592","MEAN_ELEMENT_THEORY":"SGP4","RA_OF_ASC_NODE":"119.0957","INCLINATION":"53.0534","REV_AT_EPOCH":"9566","MEAN_MOTION_DOT":"0.00001124","LAUNCH_DATE":"2020-10-06","TIME_SYSTEM":"UTC","MEAN_MOTION_DDOT":"0.0000000000000","GP_ID":"206786879","TLE_LINE2":"2 46561  53.0534 119.0957 0001782  60.5706 299.5461 15.06395523 95669","SEMIMAJOR_AXIS":"6925.362","REF_FRAME":"TEME","CENTER_NAME":"EARTH","NORAD_CAT_ID":"46561","MEAN_ANOMALY":"299.5461","OBJECT_ID":"2020-070AF","BSTAR":"0.00009437800000","ELEMENT_SET_NO":"999","COUNTRY_CODE":"US","APOAPSIS":"548.461","CLASSIFICATION_TYPE":"U"},{"TLE_LINE1":"1 46562U 20070AG  22175.55532502  .00001146  00000-0  95814-4 0  9999","PERIOD":"95.592","RA_OF_ASC_NODE":"115.5540","MEAN_ELEMENT_THEORY":"SGP4","INCLINATION":"53.0534","REV_AT_EPOCH":"9568","MEAN_MOTION_DOT":"0.00001146","TIME_SYSTEM":"UTC","LAUNCH_DATE":"2020-10-06","EPOCH":"2022-06-24T13:19:40.081728","RCS_SIZE":"LARGE","FILE":"3501798","ARG_OF_PERICENTER":"68.0720","PERIAPSIS":"546.048","OBJECT_TYPE":"PAYLOAD","MEAN_MOTION":"15.06395913","ECCENTRICITY":"0.00017010","SITE":"AFETR","DECAY_DATE":null,"EPHEMERIS_TYPE":"0","OBJECT_NAME":"STARLINK-1714","OBJECT_ID":"2020-070AG","ELEMENT_SET_NO":"999","BSTAR":"0.00009581400000","COUNTRY_CODE":"US","APOAPSIS":"548.404","CLASSIFICATION_TYPE":"U","NORAD_CAT_ID":"46562","MEAN_ANOMALY":"292.0450","CENTER_NAME":"EARTH","MEAN_MOTION_DDOT":"0.0000000000000","GP_ID":"206787129","TLE_LINE2":"2 46562  53.0534 115.5540 0001701  68.0720 292.0450 15.06395913 95680","SEMIMAJOR_AXIS":"6925.361","REF_FRAME":"TEME"},{"EPHEMERIS_TYPE":"0","DECAY_DATE":null,"OBJECT_NAME":"STARLINK-1730","SITE":"AFETR","MEAN_MOTION":"15.06387273","ECCENTRICITY":"0.00015900","OBJECT_TYPE":"PAYLOAD","FILE":"3501501","PERIAPSIS":"546.151","ARG_OF_PERICENTER":"55.2996","EPOCH":"2022-06-24T12:54:30.583008","RCS_SIZE":"LARGE","MEAN_MOTION_DOT":"-0.00001079","TIME_SYSTEM":"UTC","LAUNCH_DATE":"2020-10-06","PERIOD":"95.593","MEAN_ELEMENT_THEORY":"SGP4","RA_OF_ASC_NODE":"115.6550","TLE_LINE1":"1 46563U 20070AH  22175.53785397 -.00001079  00000-0 -53596-4 0  9998","REV_AT_EPOCH":"9568","INCLINATION":"53.0569","REF_FRAME":"TEME","GP_ID":"206756721","MEAN_MOTION_DDOT":"0.0000000000000","SEMIMAJOR_AXIS":"6925.388","TLE_LINE2":"2 46563  53.0569 115.6550 0001590  55.2996 304.8143 15.06387273 95681","CENTER_NAME":"EARTH","MEAN_ANOMALY":"304.8143","NORAD_CAT_ID":"46563","CLASSIFICATION_TYPE":"U","BSTAR":"-0.00005359600000","ELEMENT_SET_NO":"999","OBJECT_ID":"2020-070AH","APOAPSIS":"548.354","COUNTRY_CODE":"US"},{"CENTER_NAME":"EARTH","REF_FRAME":"TEME","GP_ID":"206754971","MEAN_MOTION_DDOT":"0.0000000000000","SEMIMAJOR_AXIS":"6925.341","TLE_LINE2":"2 46564  53.0539 116.9121 0001581  59.5615 300.5530 15.06402564 95642","CLASSIFICATION_TYPE":"U","BSTAR":"-0.00022384000000","ELEMENT_SET_NO":"999","OBJECT_ID":"2020-070AJ","APOAPSIS":"548.301","COUNTRY_CODE":"US","MEAN_ANOMALY":"300.5530","NORAD_CAT_ID":"46564","MEAN_MOTION":"15.06402564","ECCENTRICITY":"0.00015810","OBJECT_TYPE":"PAYLOAD","EPHEMERIS_TYPE":"0","DECAY_DATE":null,"OBJECT_NAME":"STARLINK-1733","SITE":"AFETR","MEAN_MOTION_DOT":"-0.00003614","LAUNCH_DATE":"2020-10-06","TIME_SYSTEM":"UTC","PERIOD":"95.592","MEAN_ELEMENT_THEORY":"SGP4","RA_OF_ASC_NODE":"116.9121","TLE_LINE1":"1 46564U 20070AJ  22175.25402788 -.00003614  00000-0 -22384-3 0  9995","REV_AT_EPOCH":"9564","INCLINATION":"53.0539","FILE":"3501501","PERIAPSIS":"546.111","ARG_OF_PERICENTER":"59.5615","EPOCH":"2022-06-24T06:05:48.008832","RCS_SIZE":"LARGE"},{"REV_AT_EPOCH":"9568","INCLINATION":"53.0544","MEAN_ELEMENT_THEORY":"SGP4","PERIOD":"95.592","RA_OF_ASC_NODE":"115.5346","TLE_LINE1":"1 46565U 20070AK  22175.56364953 -.00000279  00000-0  19527-6 0  9992","TIME_SYSTEM":"UTC","LAUNCH_DATE":"2020-10-06","MEAN_MOTION_DOT":"-0.00000279","RCS_SIZE":"LARGE","EPOCH":"2022-06-24T13:31:39.319392","PERIAPSIS":"546.164","ARG_OF_PERICENTER":"61.6101","FILE":"3501798","OBJECT_TYPE":"PAYLOAD","ECCENTRICITY":"0.00015290","MEAN_MOTION":"15.06396974","SITE":"AFETR","OBJECT_NAME":"STARLINK-1735","EPHEMERIS_TYPE":"0","DECAY_DATE":null,"APOAPSIS":"548.282","COUNTRY_CODE":"US","BSTAR":"0.00000019527000","ELEMENT_SET_NO":"999","OBJECT_ID":"2020-070AK","CLASSIFICATION_TYPE":"U","NORAD_CAT_ID":"46565","MEAN_ANOMALY":"298.5042","CENTER_NAME":"EARTH","SEMIMAJOR_AXIS":"6925.358","TLE_LINE2":"2 46565  53.0544 115.5346 0001529  61.6101 298.5042 15.06396974 95684","GP_ID":"206786379","MEAN_MOTION_DDOT":"0.0000000000000","REF_FRAME":"TEME"},{"FILE":"3501501","PERIAPSIS":"545.807","ARG_OF_PERICENTER":"53.7049","EPOCH":"2022-06-24T08:23:48.327360","RCS_SIZE":"LARGE","MEAN_MOTION_DOT":"0.00002089","LAUNCH_DATE":"2020-10-06","TIME_SYSTEM":"UTC","PERIOD":"95.592","MEAN_ELEMENT_THEORY":"SGP4","RA_OF_ASC_NODE":"116.4741","TLE_LINE1":"1 46566U 20070AL  22175.34986490  .00002089  00000-0  15912-3 0  9996","REV_AT_EPOCH":"9565","INCLINATION":"53.0547","EPHEMERIS_TYPE":"0","DECAY_DATE":null,"OBJECT_NAME":"STARLINK-1740","SITE":"AFETR","MEAN_MOTION":"15.06397844","ECCENTRICITY":"0.00020410","OBJECT_TYPE":"PAYLOAD","MEAN_ANOMALY":"306.4128","NORAD_CAT_ID":"46566","CLASSIFICATION_TYPE":"U","BSTAR":"0.00015912000000","ELEMENT_SET_NO":"999","OBJECT_ID":"2020-070AL","APOAPSIS":"548.634","COUNTRY_CODE":"US","REF_FRAME":"TEME","GP_ID":"206754215","MEAN_MOTION_DDOT":"0.0000000000000","SEMIMAJOR_AXIS":"6925.355","TLE_LINE2":"2 46566  53.0547 116.4741 0002041  53.7049 306.4128 15.06397844 95658","CENTER_NAME":"EARTH"},{"EPHEMERIS_TYPE":"0","DECAY_DATE":null,"OBJECT_NAME":"STARLINK-1741","SITE":"AFETR","MEAN_MOTION":"15.06413799","ECCENTRICITY":"0.00018100","OBJECT_TYPE":"PAYLOAD","FILE":"3501557","PERIAPSIS":"545.918","ARG_OF_PERICENTER":"71.7246","EPOCH":"2022-06-24T05:55:10.661088","RCS_SIZE":"LARGE","MEAN_MOTION_DOT":"-0.00003380","TIME_SYSTEM":"UTC","LAUNCH_DATE":"2020-10-06","PERIOD":"95.591","MEAN_ELEMENT_THEORY":"SGP4","RA_OF_ASC_NODE":"116.9434","TLE_LINE1":"1 46567U 20070AM  22175.24665117 -.00003380  00000-0 -20803-3 0  9998","REV_AT_EPOCH":"9564","INCLINATION":"53.0535","REF_FRAME":"TEME","GP_ID":"206760908","MEAN_MOTION_DDOT":"0.0000000000000","SEMIMAJOR_AXIS":"6925.306","TLE_LINE2":"2 46567  53.0535 116.9434 0001810  71.7246 288.3940 15.06413799 95649","CENTER_NAME":"EARTH","MEAN_ANOMALY":"288.3940","NORAD_CAT_ID":"46567","CLASSIFICATION_TYPE":"U","ELEMENT_SET_NO":"999","BSTAR":"-0.00020803000000","OBJECT_ID":"2020-070AM","APOAPSIS":"548.425","COUNTRY_CODE":"US"},{"SITE":"AFETR","DECAY_DATE":null,"EPHEMERIS_TYPE":"0","OBJECT_NAME":"STARLINK-1747","OBJECT_TYPE":"PAYLOAD","MEAN_MOTION":"15.06388594","ECCENTRICITY":"0.00015960","EPOCH":"2022-06-24T12:38:34.867680","RCS_SIZE":"LARGE","FILE":"3501556","ARG_OF_PERICENTER":"54.3772","PERIAPSIS":"546.143","TLE_LINE1":"1 46569U 20070AP  22175.52679245 -.00000184  00000-0  65408-5 0  9998","PERIOD":"95.593","RA_OF_ASC_NODE":"115.6870","MEAN_ELEMENT_THEORY":"SGP4","INCLINATION":"53.0543","REV_AT_EPOCH":"9538","MEAN_MOTION_DOT":"-0.00000184","LAUNCH_DATE":"2020-10-06","TIME_SYSTEM":"UTC","MEAN_MOTION_DDOT":"0.0000000000000","GP_ID":"206760502","TLE_LINE2":"2 46569  53.0543 115.6870 0001596  54.3772 305.7366 15.06388594 95383","SEMIMAJOR_AXIS":"6925.384","REF_FRAME":"TEME","CENTER_NAME":"EARTH","NORAD_CAT_ID":"46569","MEAN_ANOMALY":"305.7366","OBJECT_ID":"2020-070AP","BSTAR":"0.00000654080000","ELEMENT_SET_NO":"999","COUNTRY_CODE":"US","APOAPSIS":"548.354","CLASSIFICATION_TYPE":"U"},{"CLASSIFICATION_TYPE":"U","OBJECT_ID":"2020-070AQ","BSTAR":"0.00064146000000","ELEMENT_SET_NO":"999","COUNTRY_CODE":"US","APOAPSIS":"546.378","MEAN_ANOMALY":"281.8122","NORAD_CAT_ID":"46570","CENTER_NAME":"EARTH","REF_FRAME":"TEME","MEAN_MOTION_DDOT":"0.0000000000000","GP_ID":"206786880","TLE_LINE2":"2 46570  53.0537 115.4430 0002727  78.3173 281.8122 15.07288922 95688","SEMIMAJOR_AXIS":"6922.625","MEAN_MOTION_DOT":"0.00009517","TIME_SYSTEM":"UTC","LAUNCH_DATE":"2020-10-06","TLE_LINE1":"1 46570U 20070AQ  22175.55385192  .00009517  00000-0  64146-3 0  9992","PERIOD":"95.536","MEAN_ELEMENT_THEORY":"SGP4","RA_OF_ASC_NODE":"115.4430","INCLINATION":"53.0537","REV_AT_EPOCH":"9568","FILE":"3501798","ARG_OF_PERICENTER":"78.3173","PERIAPSIS":"542.603","EPOCH":"2022-06-24T13:17:32.805888","RCS_SIZE":"LARGE","MEAN_MOTION":"15.07288922","ECCENTRICITY":"0.00027270","OBJECT_TYPE":"PAYLOAD","DECAY_DATE":null,"EPHEMERIS_TYPE":"0","OBJECT_NAME":"STARLINK-1748","SITE":"AFETR"},{"MEAN_MOTION_DOT":"-0.00000308","TIME_SYSTEM":"UTC","LAUNCH_DATE":"2020-10-06","MEAN_ELEMENT_THEORY":"SGP4","PERIOD":"95.593","RA_OF_ASC_NODE":"134.3234","TLE_LINE1":"1 46572U 20070AS  22175.82993537 -.00000308  00000-0 -17375-5 0  9997","REV_AT_EPOCH":"9544","INCLINATION":"53.0535","FILE":"3501798","PERIAPSIS":"545.932","ARG_OF_PERICENTER":"48.3497","EPOCH":"2022-06-24T19:55:06.415968","RCS_SIZE":"LARGE","MEAN_MOTION":"15.06389831","ECCENTRICITY":"0.00018950","OBJECT_TYPE":"PAYLOAD","EPHEMERIS_TYPE":"0","DECAY_DATE":null,"OBJECT_NAME":"STARLINK-1531","SITE":"AFETR","CLASSIFICATION_TYPE":"U","BSTAR":"-0.00000173750000","ELEMENT_SET_NO":"999","OBJECT_ID":"2020-070AS","APOAPSIS":"548.557","COUNTRY_CODE":"US","MEAN_ANOMALY":"311.7654","NORAD_CAT_ID":"46572","CENTER_NAME":"EARTH","REF_FRAME":"TEME","GP_ID":"206787130","MEAN_MOTION_DDOT":"0.0000000000000","SEMIMAJOR_AXIS":"6925.380","TLE_LINE2":"2 46572  53.0535 134.3234 0001895  48.3497 311.7654 15.06389831 95448"}];
